{
    "type": "FeatureCollection",
    "features": [
      {
        "type": "Feature",
        "properties": {
          "id": 1,
          "nome": "Atins - MA"
        },
        "geometry": {
          "type": "Polygon",
          "coordinates": [[
            [-42.81416659825316, -2.5438671219823052],
            [-42.7777743863391, -2.5493548610266057],
            [-42.7612948941516, -2.5445530906409437],
            [-42.74691825383177, -2.563331340586756],
            [-42.73773437016478, -2.5671898510388753],
            [-42.72988094560987, -2.5718200053598084],
            [-42.71803622715941, -2.577136179771035],
            [-42.6976085165595, -2.5800515770948693],
            [-42.68954043858519, -2.586739457911745],
            [-42.67477756016722, -2.595313751954582],
            [-42.656238131456284, -2.6131480970398124],
  
            [-42.656238131456284, -2.63],
            [-42.81416659825316, -2.63],
            [-42.81416659825316, -2.5438671219823052]
          ]]
        }
      }
    ]
  }